start=new Date('2023-01-13T00:00:00.000Z').valueOf();
sats=[{"LAUNCH_DATE":"2020-08-18","REV_AT_EPOCH":"13372","INCLINATION":"53.0544","CLASSIFICATION_TYPE":"U","ECCENTRICITY":"0.00013020","TIME_SYSTEM":"UTC","OBJECT_ID":"2020-057C","EPOCH":"2023-01-12T21:35:26.752416","MEAN_ELEMENT_THEORY":"SGP4","GP_ID":"222886321","PERIAPSIS":"546.349","MEAN_MOTION":"15.06387884","SEMIMAJOR_AXIS":"6925.386","FILE":"3742227","NORAD_CAT_ID":"46119","OBJECT_TYPE":"PAYLOAD","CENTER_NAME":"EARTH","ARG_OF_PERICENTER":"90.9693","COUNTRY_CODE":"US","OBJECT_NAME":"STARLINK-1593","TLE_LINE2":"2 46119  53.0544  87.1983 0001302  90.9693 269.1445 15.06387884133729","MEAN_MOTION_DDOT":"0.0000000000000","MEAN_ANOMALY":"269.1445","APOAPSIS":"548.152","PERIOD":"95.593","REF_FRAME":"TEME","MEAN_MOTION_DOT":"-0.00000786","SITE":"AFETR","ELEMENT_SET_NO":"999","RCS_SIZE":"LARGE","EPHEMERIS_TYPE":"0","TLE_LINE1":"1 46119U 20057C   23012.89961519 -.00000786  00000-0 -33926-4 0  9991","RA_OF_ASC_NODE":"87.1983","DECAY_DATE":null,"BSTAR":"-0.00003392600000"},{"OBJECT_ID":"2020-057D","MEAN_ELEMENT_THEORY":"SGP4","EPOCH":"2023-01-12T11:40:56.349984","TIME_SYSTEM":"UTC","ECCENTRICITY":"0.00021180","LAUNCH_DATE":"2020-08-18","INCLINATION":"53.0530","REV_AT_EPOCH":"13368","CLASSIFICATION_TYPE":"U","ARG_OF_PERICENTER":"44.7742","COUNTRY_CODE":"US","OBJECT_NAME":"STARLINK-1601","NORAD_CAT_ID":"46120","FILE":"3742227","OBJECT_TYPE":"PAYLOAD","CENTER_NAME":"EARTH","PERIAPSIS":"545.748","MEAN_MOTION":"15.06399438","SEMIMAJOR_AXIS":"6925.350","GP_ID":"222886571","SITE":"AFETR","ELEMENT_SET_NO":"999","REF_FRAME":"TEME","MEAN_MOTION_DOT":"0.00000419","MEAN_MOTION_DDOT":"0.0000000000000","PERIOD":"95.592","APOAPSIS":"548.682","MEAN_ANOMALY":"315.3417","TLE_LINE2":"2 46120  53.0530  89.0693 0002118  44.7742 315.3417 15.06399438133689","DECAY_DATE":null,"BSTAR":"0.00004701500000","RA_OF_ASC_NODE":"89.0693","TLE_LINE1":"1 46120U 20057D   23012.48676331  .00000419  00000-0  47015-4 0  9998","RCS_SIZE":"LARGE","EPHEMERIS_TYPE":"0"},{"TLE_LINE2":"2 46121  53.0540  67.4190 0002315  37.7917 322.3234 15.06388491132735","APOAPSIS":"548.852","PERIOD":"95.593","MEAN_ANOMALY":"322.3234","MEAN_MOTION_DDOT":"0.0000000000000","MEAN_MOTION_DOT":"0.00000543","REF_FRAME":"TEME","ELEMENT_SET_NO":"999","SITE":"AFETR","EPHEMERIS_TYPE":"0","RCS_SIZE":"LARGE","TLE_LINE1":"1 46121U 20057E   23012.85352960  .00000543  00000-0  55376-4 0  9996","RA_OF_ASC_NODE":"67.4190","BSTAR":"0.00005537600000","DECAY_DATE":null,"CLASSIFICATION_TYPE":"U","INCLINATION":"53.0540","LAUNCH_DATE":"2020-08-18","REV_AT_EPOCH":"13273","TIME_SYSTEM":"UTC","ECCENTRICITY":"0.00023150","MEAN_ELEMENT_THEORY":"SGP4","EPOCH":"2023-01-12T20:29:04.957440","OBJECT_ID":"2020-057E","GP_ID":"222886823","MEAN_MOTION":"15.06388491","SEMIMAJOR_AXIS":"6925.384","PERIAPSIS":"545.646","CENTER_NAME":"EARTH","OBJECT_TYPE":"PAYLOAD","NORAD_CAT_ID":"46121","FILE":"3742227","OBJECT_NAME":"STARLINK-1602","COUNTRY_CODE":"US","ARG_OF_PERICENTER":"37.7917"},{"RA_OF_ASC_NODE":"47.6646","DECAY_DATE":null,"BSTAR":"-0.00007804400000","RCS_SIZE":"LARGE","EPHEMERIS_TYPE":"0","TLE_LINE1":"1 46122U 20057F   23012.79637905 -.00001444  00000-0 -78044-4 0  9995","REF_FRAME":"TEME","MEAN_MOTION_DOT":"-0.00001444","SITE":"AFETR","ELEMENT_SET_NO":"999","TLE_LINE2":"2 46122  53.0544  47.6646 0002759  39.5102 320.6088 15.06397761133676","MEAN_MOTION_DDOT":"0.0000000000000","APOAPSIS":"549.131","MEAN_ANOMALY":"320.6088","PERIOD":"95.592","FILE":"3741164","NORAD_CAT_ID":"46122","OBJECT_TYPE":"PAYLOAD","CENTER_NAME":"EARTH","ARG_OF_PERICENTER":"39.5102","COUNTRY_CODE":"US","OBJECT_NAME":"STARLINK-1604","GP_ID":"222841660","PERIAPSIS":"545.310","MEAN_MOTION":"15.06397761","SEMIMAJOR_AXIS":"6925.355","ECCENTRICITY":"0.00027590","TIME_SYSTEM":"UTC","OBJECT_ID":"2020-057F","MEAN_ELEMENT_THEORY":"SGP4","EPOCH":"2023-01-12T19:06:47.149920","LAUNCH_DATE":"2020-08-18","REV_AT_EPOCH":"13367","INCLINATION":"53.0544","CLASSIFICATION_TYPE":"U"},{"SITE":"AFETR","ELEMENT_SET_NO":"999","REF_FRAME":"TEME","MEAN_MOTION_DOT":"0.00000198","MEAN_MOTION_DDOT":"0.0000000000000","PERIOD":"95.592","APOAPSIS":"548.732","MEAN_ANOMALY":"323.5048","TLE_LINE2":"2 46123  53.0542  47.7413 0002175  36.6089 323.5048 15.06396116133662","DECAY_DATE":null,"BSTAR":"0.00003220600000","RA_OF_ASC_NODE":"47.7413","TLE_LINE1":"1 46123U 20057G   23012.78164273  .00000198  00000-0  32206-4 0  9991","EPHEMERIS_TYPE":"0","RCS_SIZE":"LARGE","EPOCH":"2023-01-12T18:45:33.931872","MEAN_ELEMENT_THEORY":"SGP4","OBJECT_ID":"2020-057G","TIME_SYSTEM":"UTC","ECCENTRICITY":"0.00021750","CLASSIFICATION_TYPE":"U","LAUNCH_DATE":"2020-08-18","REV_AT_EPOCH":"13366","INCLINATION":"53.0542","COUNTRY_CODE":"US","ARG_OF_PERICENTER":"36.6089","OBJECT_NAME":"STARLINK-1605","OBJECT_TYPE":"PAYLOAD","NORAD_CAT_ID":"46123","FILE":"3741164","CENTER_NAME":"EARTH","SEMIMAJOR_AXIS":"6925.360","MEAN_MOTION":"15.06396116","PERIAPSIS":"545.719","GP_ID":"222841243"},{"RA_OF_ASC_NODE":"47.7043","DECAY_DATE":null,"BSTAR":"0.00002091900000","EPHEMERIS_TYPE":"0","RCS_SIZE":"LARGE","TLE_LINE1":"1 46124U 20057H   23012.78903062  .00000030  00000-0  20919-4 0  9992","REF_FRAME":"TEME","MEAN_MOTION_DOT":"0.00000030","SITE":"AFETR","ELEMENT_SET_NO":"999","TLE_LINE2":"2 46124  53.0544  47.7043 0001879  76.7020 283.4178 15.06397057133016","MEAN_MOTION_DDOT":"0.0000000000000","APOAPSIS":"548.524","PERIOD":"95.592","MEAN_ANOMALY":"283.4178","OBJECT_TYPE":"PAYLOAD","FILE":"3742227","NORAD_CAT_ID":"46124","CENTER_NAME":"EARTH","COUNTRY_CODE":"US","ARG_OF_PERICENTER":"76.7020","OBJECT_NAME":"STARLINK-1614","GP_ID":"222886073","MEAN_MOTION":"15.06397057","SEMIMAJOR_AXIS":"6925.358","PERIAPSIS":"545.921","ECCENTRICITY":"0.00018790","TIME_SYSTEM":"UTC","EPOCH":"2023-01-12T18:56:12.245568","MEAN_ELEMENT_THEORY":"SGP4","OBJECT_ID":"2020-057H","CLASSIFICATION_TYPE":"U","LAUNCH_DATE":"2020-08-18","INCLINATION":"53.0544","REV_AT_EPOCH":"13301"},{"REV_AT_EPOCH":"13372","LAUNCH_DATE":"2020-08-18","INCLINATION":"53.0506","CLASSIFICATION_TYPE":"U","OBJECT_ID":"2020-057J","EPOCH":"2023-01-12T21:40:42.377664","MEAN_ELEMENT_THEORY":"SGP4","TIME_SYSTEM":"UTC","ECCENTRICITY":"0.00018430","PERIAPSIS":"545.940","SEMIMAJOR_AXIS":"6925.352","MEAN_MOTION":"15.06398993","GP_ID":"222887323","ARG_OF_PERICENTER":"40.4577","COUNTRY_CODE":"US","OBJECT_NAME":"STARLINK-1618","NORAD_CAT_ID":"46125","FILE":"3742227","OBJECT_TYPE":"PAYLOAD","CENTER_NAME":"EARTH","MEAN_MOTION_DDOT":"0.0000000000000","APOAPSIS":"548.493","PERIOD":"95.592","MEAN_ANOMALY":"319.6549","TLE_LINE2":"2 46125  53.0506  87.1900 0001843  40.4577 319.6549 15.06398993133723","SITE":"AFETR","ELEMENT_SET_NO":"999","REF_FRAME":"TEME","MEAN_MOTION_DOT":"-0.00001095","TLE_LINE1":"1 46125U 20057J   23012.90326826 -.00001095  00000-0 -54593-4 0  9993","RCS_SIZE":"LARGE","EPHEMERIS_TYPE":"0","DECAY_DATE":null,"BSTAR":"-0.00005459300000","RA_OF_ASC_NODE":"87.1900"},{"BSTAR":"0.00054677000000","DECAY_DATE":null,"RA_OF_ASC_NODE":"88.5036","TLE_LINE1":"1 46126U 20057K   23012.61207101  .00007879  00000-0  54677-3 0  9992","EPHEMERIS_TYPE":"0","RCS_SIZE":"LARGE","ELEMENT_SET_NO":"999","SITE":"AFETR","MEAN_MOTION_DOT":"0.00007879","REF_FRAME":"TEME","APOAPSIS":"548.254","PERIOD":"95.590","MEAN_ANOMALY":"300.8566","MEAN_MOTION_DDOT":"0.0000000000000","TLE_LINE2":"2 46126  53.0531  88.5036 0001655  59.2586 300.8566 15.06434588132424","OBJECT_NAME":"STARLINK-1619","COUNTRY_CODE":"US","ARG_OF_PERICENTER":"59.2586","CENTER_NAME":"EARTH","OBJECT_TYPE":"PAYLOAD","FILE":"3742227","NORAD_CAT_ID":"46126","SEMIMAJOR_AXIS":"6925.243","MEAN_MOTION":"15.06434588","PERIAPSIS":"545.961","GP_ID":"222887570","MEAN_ELEMENT_THEORY":"SGP4","EPOCH":"2023-01-12T14:41:22.935264","OBJECT_ID":"2020-057K","TIME_SYSTEM":"UTC","ECCENTRICITY":"0.00016550","CLASSIFICATION_TYPE":"U","LAUNCH_DATE":"2020-08-18","INCLINATION":"53.0531","REV_AT_EPOCH":"13242"},{"RCS_SIZE":"LARGE","EPHEMERIS_TYPE":"0","TLE_LINE1":"1 46127U 20057L   23012.86827616  .00003975  00000-0  28559-3 0  9992","RA_OF_ASC_NODE":"67.3470","BSTAR":"0.00028559000000","DECAY_DATE":null,"TLE_LINE2":"2 46127  53.0534  67.3470 0001900  78.0626 282.0576 15.06402815132736","PERIOD":"95.592","APOAPSIS":"548.521","MEAN_ANOMALY":"282.0576","MEAN_MOTION_DDOT":"0.0000000000000","MEAN_MOTION_DOT":"0.00003975","REF_FRAME":"TEME","ELEMENT_SET_NO":"999","SITE":"AFETR","GP_ID":"222886322","PERIAPSIS":"545.889","SEMIMAJOR_AXIS":"6925.340","MEAN_MOTION":"15.06402815","CENTER_NAME":"EARTH","NORAD_CAT_ID":"46127","FILE":"3742227","OBJECT_TYPE":"PAYLOAD","OBJECT_NAME":"STARLINK-1621","ARG_OF_PERICENTER":"78.0626","COUNTRY_CODE":"US","LAUNCH_DATE":"2020-08-18","INCLINATION":"53.0534","REV_AT_EPOCH":"13273","CLASSIFICATION_TYPE":"U","ECCENTRICITY":"0.00019000","TIME_SYSTEM":"UTC","OBJECT_ID":"2020-057L","EPOCH":"2023-01-12T20:50:19.060224","MEAN_ELEMENT_THEORY":"SGP4"},{"OBJECT_TYPE":"PAYLOAD","NORAD_CAT_ID":"46128","FILE":"3742227","CENTER_NAME":"EARTH","COUNTRY_CODE":"US","ARG_OF_PERICENTER":"44.1051","OBJECT_NAME":"STARLINK-1622","GP_ID":"222886572","MEAN_MOTION":"15.06398634","SEMIMAJOR_AXIS":"6925.353","PERIAPSIS":"545.617","ECCENTRICITY":"0.00023110","TIME_SYSTEM":"UTC","EPOCH":"2023-01-12T19:54:34.994880","MEAN_ELEMENT_THEORY":"SGP4","OBJECT_ID":"2020-057M","CLASSIFICATION_TYPE":"U","LAUNCH_DATE":"2020-08-18","INCLINATION":"53.0550","REV_AT_EPOCH":"13301","RA_OF_ASC_NODE":"47.5213","DECAY_DATE":null,"BSTAR":"0.00022559000000","EPHEMERIS_TYPE":"0","RCS_SIZE":"LARGE","TLE_LINE1":"1 46128U 20057M   23012.82957170  .00003080  00000-0  22559-3 0  9999","REF_FRAME":"TEME","MEAN_MOTION_DOT":"0.00003080","SITE":"AFETR","ELEMENT_SET_NO":"999","TLE_LINE2":"2 46128  53.0550  47.5213 0002311  44.1051 316.0122 15.06398634133013","MEAN_MOTION_DDOT":"0.0000000000000","PERIOD":"95.592","APOAPSIS":"548.818","MEAN_ANOMALY":"316.0122"}];
